[{"OBJECT_NAME":"CUBESX-HSE 3 (RS42S)","OBJECT_ID":"2023-091N","EPOCH":"2026-03-09T22:57:25.321248","MEAN_MOTION":15.286147,"ECCENTRICITY":0.00127191,"INCLINATION":97.5203,"RA_OF_ASC_NODE":133.4295,"ARG_OF_PERICENTER":86.5376,"MEAN_ANOMALY":273.7318,"EPHEMERIS_TYPE":0,"CLASSIFICATION_TYPE":"U","NORAD_CAT_ID":57178,"ELEMENT_SET_NO":999,"REV_AT_EPOCH":14925,"BSTAR":0.00059055694,"MEAN_MOTION_DOT":0.00016417,"MEAN_MOTION_DDOT":0},{"OBJECT_NAME":"STARLINK-36472","OBJECT_ID":"2026-003N","EPOCH":"2026-03-09T10:41:25.221984","MEAN_MOTION":15.27581501,"ECCENTRICITY":0.00013757,"INCLINATION":42.999,"RA_OF_ASC_NODE":228.6924,"ARG_OF_PERICENTER":270.6243,"MEAN_ANOMALY":89.4451,"EPHEMERIS_TYPE":0,"CLASSIFICATION_TYPE":"U","NORAD_CAT_ID":67346,"ELEMENT_SET_NO":999,"REV_AT_EPOCH":877,"BSTAR":0.0011309447,"MEAN_MOTION_DOT":0.00030991,"MEAN_MOTION_DDOT":0}]
